GHGSAT-C1               
1 46278U 20061G   26201.88740494  .00032263  00000+0  23002-3 0  9996
2 46278  97.2081 288.1783 0001496 169.3819 190.7478 15.73762516328776
GHGSAT-C2               
1 47509U 21006DA  26201.85188380  .00004287  00000+0  11623-3 0  9992
2 47509  97.2126 248.5437 0006418  60.2587 299.9297 15.38149187305028
GHGSAT-C3               
1 52737U 22057F   26201.95137520  .00004569  00000+0  13826-3 0  9999
2 52737  97.6640 348.8903 0005788  16.4232 343.7197 15.34723147230713
GHGSAT-C5               
1 52744U 22057N   26201.92560549  .00004537  00000+0  13741-3 0  9996
2 52744  97.6727 350.4762 0006494  13.3256 346.8156 15.34698935230711
GHGSAT-C4               
1 52746U 22057Q   26201.90694834  .00004591  00000+0  13899-3 0  9995
2 52746  97.6566 347.6413 0005602 359.0378   1.0853 15.34709520230717
GHGSAT-C8               
1 56186U 23054J   26201.91430458  .00012158  00000+0  19037-3 0  9994
2 56186  97.2944 111.7302 0002064 337.3616  22.7547 15.53882879183677
GHGSAT-C6               
1 56204U 23054AC  26201.94501350  .00011017  00000+0  17281-3 0  9990
2 56204  97.3005 112.4693 0003137 271.0643  89.0251 15.53857525183694
GHGSAT-C7               
1 56209U 23054AH  26201.89141154  .00009957  00000+0  17600-3 0  9996
2 56209  97.2957 110.6997 0004807 275.1616  84.9087 15.50526984183613
GHGSAT-C12              
1 64529U 25135B   26201.87957640  .00002130  00000+0  10074-3 0  9999
2 64529  97.4774 316.3967 0006211  65.7989 294.3895 15.20468066 59940
GHGSAT-C13              
1 64548U 25135W   26201.86370900  .00003922  00000+0  17775-3 0  9992
2 64548  97.4801 317.0069 0001626  63.2860 296.8542 15.21440302 59972
