{"fetched_at":"2026-07-21T07:06:50.051Z","source":"https://celestrak.org/NORAD/elements/gp.php?NAME=GHGSAT&FORMAT=JSON","constellation":"ghgsat","records":[{"OBJECT_NAME":"GHGSAT-C1","OBJECT_ID":"2020-061G","EPOCH":"2026-07-20T21:17:51.786816","CLASSIFICATION_TYPE":"U","MEAN_MOTION":15.73762516,"ECCENTRICITY":0.00014969,"INCLINATION":97.2081,"RA_OF_ASC_NODE":288.1783,"ARG_OF_PERICENTER":169.3819,"MEAN_ANOMALY":190.7478,"EPHEMERIS_TYPE":0,"NORAD_CAT_ID":46278,"ELEMENT_SET_NO":999,"REV_AT_EPOCH":32877,"BSTAR":0.00023001857,"MEAN_MOTION_DOT":0.00032263,"MEAN_MOTION_DDOT":0},{"OBJECT_NAME":"GHGSAT-C2","OBJECT_ID":"2021-006DA","EPOCH":"2026-07-20T20:26:42.760320","CLASSIFICATION_TYPE":"U","MEAN_MOTION":15.38149187,"ECCENTRICITY":0.00064182,"INCLINATION":97.2126,"RA_OF_ASC_NODE":248.5437,"ARG_OF_PERICENTER":60.2587,"MEAN_ANOMALY":299.9297,"EPHEMERIS_TYPE":0,"NORAD_CAT_ID":47509,"ELEMENT_SET_NO":999,"REV_AT_EPOCH":30502,"BSTAR":0.00011623297,"MEAN_MOTION_DOT":0.00004287,"MEAN_MOTION_DDOT":0},{"OBJECT_NAME":"GHGSAT-C3","OBJECT_ID":"2022-057F","EPOCH":"2026-07-20T22:49:58.817280","CLASSIFICATION_TYPE":"U","MEAN_MOTION":15.34723147,"ECCENTRICITY":0.00057889,"INCLINATION":97.664,"RA_OF_ASC_NODE":348.8903,"ARG_OF_PERICENTER":16.4232,"MEAN_ANOMALY":343.7197,"EPHEMERIS_TYPE":0,"NORAD_CAT_ID":52737,"ELEMENT_SET_NO":999,"REV_AT_EPOCH":23071,"BSTAR":0.00013826412,"MEAN_MOTION_DOT":0.00004569,"MEAN_MOTION_DDOT":0},{"OBJECT_NAME":"GHGSAT-C5","OBJECT_ID":"2022-057N","EPOCH":"2026-07-20T22:12:52.314336","CLASSIFICATION_TYPE":"U","MEAN_MOTION":15.34698935,"ECCENTRICITY":0.00064949,"INCLINATION":97.6727,"RA_OF_ASC_NODE":350.4762,"ARG_OF_PERICENTER":13.3256,"MEAN_ANOMALY":346.8156,"EPHEMERIS_TYPE":0,"NORAD_CAT_ID":52744,"ELEMENT_SET_NO":999,"REV_AT_EPOCH":23071,"BSTAR":0.00013741022,"MEAN_MOTION_DOT":0.00004537,"MEAN_MOTION_DDOT":0},{"OBJECT_NAME":"GHGSAT-C4","OBJECT_ID":"2022-057Q","EPOCH":"2026-07-20T21:46:00.336576","CLASSIFICATION_TYPE":"U","MEAN_MOTION":15.3470952,"ECCENTRICITY":0.00056028,"INCLINATION":97.6566,"RA_OF_ASC_NODE":347.6413,"ARG_OF_PERICENTER":359.0378,"MEAN_ANOMALY":1.0853,"EPHEMERIS_TYPE":0,"NORAD_CAT_ID":52746,"ELEMENT_SET_NO":999,"REV_AT_EPOCH":23071,"BSTAR":0.00013899337,"MEAN_MOTION_DOT":0.00004591,"MEAN_MOTION_DDOT":0},{"OBJECT_NAME":"GHGSAT-C8","OBJECT_ID":"2023-054J","EPOCH":"2026-07-20T21:56:35.915712","CLASSIFICATION_TYPE":"U","MEAN_MOTION":15.53882879,"ECCENTRICITY":0.00020647,"INCLINATION":97.2944,"RA_OF_ASC_NODE":111.7302,"ARG_OF_PERICENTER":337.3616,"MEAN_ANOMALY":22.7547,"EPHEMERIS_TYPE":0,"NORAD_CAT_ID":56186,"ELEMENT_SET_NO":999,"REV_AT_EPOCH":18367,"BSTAR":0.00019037216,"MEAN_MOTION_DOT":0.00012158,"MEAN_MOTION_DDOT":0},{"OBJECT_NAME":"GHGSAT-C6","OBJECT_ID":"2023-054AC","EPOCH":"2026-07-20T22:40:49.166400","CLASSIFICATION_TYPE":"U","MEAN_MOTION":15.53857525,"ECCENTRICITY":0.00031379,"INCLINATION":97.3005,"RA_OF_ASC_NODE":112.4693,"ARG_OF_PERICENTER":271.0643,"MEAN_ANOMALY":89.0251,"EPHEMERIS_TYPE":0,"NORAD_CAT_ID":56204,"ELEMENT_SET_NO":999,"REV_AT_EPOCH":18369,"BSTAR":0.00017280781,"MEAN_MOTION_DOT":0.00011017,"MEAN_MOTION_DDOT":0},{"OBJECT_NAME":"GHGSAT-C7","OBJECT_ID":"2023-054AH","EPOCH":"2026-07-20T21:23:37.957056","CLASSIFICATION_TYPE":"U","MEAN_MOTION":15.50526984,"ECCENTRICITY":0.00048071,"INCLINATION":97.2957,"RA_OF_ASC_NODE":110.6997,"ARG_OF_PERICENTER":275.1616,"MEAN_ANOMALY":84.9087,"EPHEMERIS_TYPE":0,"NORAD_CAT_ID":56209,"ELEMENT_SET_NO":999,"REV_AT_EPOCH":18361,"BSTAR":0.00017599677,"MEAN_MOTION_DOT":0.00009957,"MEAN_MOTION_DDOT":0},{"OBJECT_NAME":"GHGSAT-C12","OBJECT_ID":"2025-135B","EPOCH":"2026-07-20T21:06:35.400960","CLASSIFICATION_TYPE":"U","MEAN_MOTION":15.20468066,"ECCENTRICITY":0.00062115,"INCLINATION":97.4774,"RA_OF_ASC_NODE":316.3967,"ARG_OF_PERICENTER":65.7989,"MEAN_ANOMALY":294.3895,"EPHEMERIS_TYPE":0,"NORAD_CAT_ID":64529,"ELEMENT_SET_NO":999,"REV_AT_EPOCH":5994,"BSTAR":0.00010073761,"MEAN_MOTION_DOT":0.0000213,"MEAN_MOTION_DDOT":0},{"OBJECT_NAME":"GHGSAT-C13","OBJECT_ID":"2025-135W","EPOCH":"2026-07-20T20:43:44.457600","CLASSIFICATION_TYPE":"U","MEAN_MOTION":15.21440302,"ECCENTRICITY":0.00016266,"INCLINATION":97.4801,"RA_OF_ASC_NODE":317.0069,"ARG_OF_PERICENTER":63.286,"MEAN_ANOMALY":296.8542,"EPHEMERIS_TYPE":0,"NORAD_CAT_ID":64548,"ELEMENT_SET_NO":999,"REV_AT_EPOCH":5997,"BSTAR":0.00017775445,"MEAN_MOTION_DOT":0.00003922,"MEAN_MOTION_DDOT":0}]}
